[{"OBJECT_NAME":"STARLINK-3260","OBJECT_ID":"2021-125BB","EPOCH":"2026-03-09T16:05:36.785760","MEAN_MOTION":15.08837295,"ECCENTRICITY":0.0001234,"INCLINATION":53.2169,"RA_OF_ASC_NODE":209.2065,"ARG_OF_PERICENTER":80.6164,"MEAN_ANOMALY":279.4968,"EPHEMERIS_TYPE":0,"CLASSIFICATION_TYPE":"U","NORAD_CAT_ID":50205,"ELEMENT_SET_NO":999,"REV_AT_EPOCH":23715,"BSTAR":2.532015e-6,"MEAN_MOTION_DOT":-2.48e-6,"MEAN_MOTION_DDOT":0},{"OBJECT_NAME":"CZ-6A DEB","OBJECT_ID":"2022-151KB","EPOCH":"2026-03-09T19:20:41.637408","MEAN_MOTION":14.94061736,"ECCENTRICITY":0.0071589,"INCLINATION":98.7004,"RA_OF_ASC_NODE":166.2159,"ARG_OF_PERICENTER":166.3306,"MEAN_ANOMALY":193.9872,"EPHEMERIS_TYPE":0,"CLASSIFICATION_TYPE":"U","NORAD_CAT_ID":54523,"ELEMENT_SET_NO":999,"REV_AT_EPOCH":17710,"BSTAR":0.0044467837,"MEAN_MOTION_DOT":0.00050189,"MEAN_MOTION_DDOT":0}]
